{
"type": "FeatureCollection",
"name": "nyando_wards",
"crs": { "type": "name", "properties": { "name": "urn:ogc:def:crs:OGC:1.3:CRS84" } },
"features": [
{ "type": "Feature", "properties": { "id": "157", "wardcode": "1210", "ward": "Kobura", "wardalias": null, "countycode": 42.0, "county": "Kisumu", "const": "Nyando", "constcode": 242.0, "disamb": null, "Notes": null, "Rownum": "158", "wardcounty": "Kobura_Kisumu" }, "geometry": { "type": "MultiPolygon", "coordinates": [ [ [ [ 34.782081312339123, -0.189583754969551 ], [ 34.779907602715475, -0.186426700516164 ], [ 34.778717237921576, -0.184460010856678 ], [ 34.777475118136636, -0.182959116116543 ], [ 34.776181243360668, -0.180060836618353 ], [ 34.774990878566769, -0.178559941878218 ], [ 34.77504263355781, -0.175609907388989 ], [ 34.775922468405476, -0.174678317550285 ], [ 34.775560183468201, -0.172349342953524 ], [ 34.776698793271059, -0.16965808341949 ], [ 34.778303197993274, -0.167380863813769 ], [ 34.78011462267964, -0.16670804893026 ], [ 34.786014691658103, -0.166345763992987 ], [ 34.787567341389277, -0.165931724064674 ], [ 34.788240156272785, -0.16324046453064 ], [ 34.789792806003959, -0.160600959987645 ], [ 34.792173535591758, -0.15790970045361 ], [ 34.793312145394616, -0.155943010794124 ], [ 34.793933205287082, -0.155114930937498 ], [ 34.793260390403574, -0.153614036197364 ], [ 34.792691085502149, -0.15206138646619 ], [ 34.793570920349808, -0.150819266681251 ], [ 34.794968305107865, -0.150198206788782 ], [ 34.79703850474943, -0.148128007147217 ], [ 34.800092049220744, -0.147662212227865 ], [ 34.802576288790618, -0.1467823773802 ], [ 34.806923708037907, -0.146730622389161 ], [ 34.808114072831806, -0.146109562496691 ], [ 34.809356192616733, -0.14502270768487 ], [ 34.810650067392707, -0.143159528007462 ], [ 34.811374637267271, -0.142279693159797 ], [ 34.813755366855069, -0.142952508043305 ], [ 34.816757156335335, -0.143004263034344 ], [ 34.818620336012749, -0.143521812944736 ], [ 34.819500170860408, -0.144556912765518 ], [ 34.82612480971342, -0.145850787541496 ], [ 34.832697693575383, -0.145643767577339 ], [ 34.834457363270715, -0.144763932729674 ], [ 34.838131967634496, -0.143625322926814 ], [ 34.84092673715061, -0.141141083356936 ], [ 34.842686406845935, -0.13974369859888 ], [ 34.845739951317249, -0.138449823822902 ], [ 34.848224190887123, -0.135965584253024 ], [ 34.848482965842322, -0.134723464468085 ], [ 34.851225980367389, -0.132032204934051 ], [ 34.852778630098562, -0.129962005292487 ], [ 34.853813729919345, -0.128512865543391 ], [ 34.856556744444418, -0.129651475346252 ], [ 34.859196248987416, -0.130427800211839 ], [ 34.860800653709624, -0.131100615095347 ], [ 34.862094528485606, -0.130427800211839 ], [ 34.864164728127172, -0.128357600570274 ], [ 34.87156569184576, -0.121215411806876 ], [ 34.875188541218463, -0.118938192201155 ], [ 34.877051720895871, -0.120180311986093 ], [ 34.87974298042991, -0.120904881860641 ], [ 34.885125499497974, -0.120594351914406 ], [ 34.886678149229148, -0.121732961717267 ], [ 34.889058878816947, -0.122457531591815 ], [ 34.891025568476437, -0.124631241215457 ], [ 34.893199278100077, -0.125355811090005 ], [ 34.896408087544508, -0.125873361000396 ], [ 34.899513387006849, -0.124631241215457 ], [ 34.900755506791789, -0.126494420892866 ], [ 34.90199762657673, -0.133222569727951 ], [ 34.903757296272062, -0.134671709477046 ], [ 34.904378356164528, -0.136638399136533 ], [ 34.904585376128686, -0.141192838347975 ], [ 34.903343256343746, -0.142952508043305 ], [ 34.902722196451279, -0.144608667756557 ], [ 34.902825706433354, -0.147713967218904 ], [ 34.90199762657673, -0.148852577021765 ], [ 34.90199762657673, -0.150405226752938 ], [ 34.90323974636167, -0.150715756699173 ], [ 34.904792396092844, -0.152682446358659 ], [ 34.907276635662718, -0.154028076125677 ], [ 34.908622265429734, -0.155373705892694 ], [ 34.909450345286359, -0.156822845641789 ], [ 34.90903630535805, -0.157857945462571 ], [ 34.908104715519343, -0.15910006524751 ], [ 34.909450345286359, -0.160549204996605 ], [ 34.909346835304284, -0.162515894656092 ], [ 34.908311735483501, -0.163861524423109 ], [ 34.907587165608952, -0.165724704100517 ], [ 34.906862595734403, -0.168105433688317 ], [ 34.908518755447659, -0.170460285780597 ], [ 34.907690675591034, -0.176360354759056 ], [ 34.906034515877778, -0.17905161429309 ], [ 34.90417133620037, -0.183295523558298 ], [ 34.904792396092837, -0.186400823020645 ], [ 34.904274846182453, -0.189299102518836 ], [ 34.900444976845556, -0.194785131568982 ], [ 34.899616896988931, -0.19664831124639 ], [ 34.898271267221915, -0.198615000905877 ], [ 34.896718617490741, -0.201616790386146 ], [ 34.895580007687876, -0.203790500009789 ], [ 34.894337887902942, -0.206585269525901 ], [ 34.893095768118002, -0.208034409274996 ], [ 34.888903613843858, -0.20780151181532 ], [ 34.884038644686179, -0.206455882048303 ], [ 34.878863145582265, -0.205627802191677 ], [ 34.872859566621727, -0.205731312173756 ], [ 34.870582347016011, -0.205213762263364 ], [ 34.868822677320679, -0.203454092568034 ], [ 34.866959497643272, -0.2031435626218 ], [ 34.865820887840407, -0.201280382944391 ], [ 34.864578768055473, -0.197450513607497 ], [ 34.863543668234691, -0.195690843912167 ], [ 34.863647178216766, -0.189894284915785 ], [ 34.862198038467675, -0.188652165130847 ], [ 34.857126049345837, -0.188548655148768 ], [ 34.855469889632587, -0.187203025381751 ], [ 34.854434789811805, -0.186167925560969 ], [ 34.853813729919331, -0.184201235901482 ], [ 34.852571610134397, -0.182752096152387 ], [ 34.849673330636207, -0.181820506313683 ], [ 34.846982071102168, -0.182027526277839 ], [ 34.843980281621903, -0.182027526277839 ], [ 34.843048691783196, -0.181302956403292 ], [ 34.84170306201618, -0.180164346600431 ], [ 34.839529352392539, -0.179336266743805 ], [ 34.838183722625523, -0.178715206851336 ], [ 34.827004644561072, -0.178094146958866 ], [ 34.825555504811973, -0.179232756761727 ], [ 34.818827355976893, -0.179232756761727 ], [ 34.815100996622071, -0.179543286707962 ], [ 34.812513247070115, -0.178197656940945 ], [ 34.810029007500241, -0.17788712699471 ], [ 34.8087868877153, -0.176541497227693 ], [ 34.808165827822833, -0.17436778760405 ], [ 34.80588860821711, -0.174264277621972 ], [ 34.804439468468019, -0.173850237693659 ], [ 34.803197348683078, -0.172090567998329 ], [ 34.802886818736845, -0.17084844821339 ], [ 34.801230659023588, -0.17022738832092 ], [ 34.799574499310339, -0.171262488141703 ], [ 34.797297279704615, -0.172711627890798 ], [ 34.796365689865915, -0.174057257657815 ], [ 34.7917077406724, -0.174264277621972 ], [ 34.789741051012911, -0.175713417371067 ], [ 34.788602441210053, -0.177369577084319 ], [ 34.787463831407187, -0.178611696869258 ], [ 34.786221711622254, -0.180785406492901 ], [ 34.785393631765629, -0.182027526277839 ], [ 34.784255021962764, -0.185029315758108 ], [ 34.783426942106139, -0.187720575292142 ], [ 34.782081312339123, -0.189583754969551 ] ] ] ] } },
{ "type": "Feature", "properties": { "id": "240", "wardcode": "1207", "ward": "Awasi/Onjiko", "wardalias": null, "countycode": 42.0, "county": "Kisumu", "const": "Nyando", "constcode": 242.0, "disamb": null, "Notes": null, "Rownum": "241", "wardcounty": "Awasi/Onjiko_Kisumu" }, "geometry": { "type": "MultiPolygon", "coordinates": [ [ [ [ 34.927202307212767, -0.207051064445253 ], [ 34.927254062203815, -0.204592702370895 ], [ 34.927875122096289, -0.202936542657643 ], [ 34.927926877087323, -0.200918098007118 ], [ 34.928961976908106, -0.199261938293866 ], [ 34.928030387069398, -0.197916308526849 ], [ 34.925960187427833, -0.195225048992815 ], [ 34.92425227272355, -0.190463589817216 ], [ 34.925908432436799, -0.189376735005394 ], [ 34.929738301773696, -0.188031105238377 ], [ 34.933154131182278, -0.186064415578891 ], [ 34.936362940626701, -0.184563520838756 ], [ 34.937812080375792, -0.183476666026935 ], [ 34.940813869856065, -0.181509976367448 ], [ 34.942987579479706, -0.180267856582509 ], [ 34.945523574040621, -0.178922226815492 ], [ 34.947749038655303, -0.177421332075358 ], [ 34.949715728314793, -0.175765172362106 ], [ 34.951423643019083, -0.174678317550285 ], [ 34.951475398010125, -0.168364208643512 ], [ 34.953338577687532, -0.167639638768965 ], [ 34.958979871710802, -0.167717271255523 ], [ 34.960687786415093, -0.166319886497467 ], [ 34.965138715644457, -0.163111077053042 ], [ 34.968036995142647, -0.162127732223299 ], [ 34.971608089524345, -0.160782102456281 ], [ 34.975696733816434, -0.159229452725108 ], [ 34.97812921839526, -0.159332962707186 ], [ 34.978543258323576, -0.163473361990316 ], [ 34.979371338180201, -0.167199721345132 ], [ 34.983408227481256, -0.171236610646184 ], [ 34.984339817319956, -0.17848230939166 ], [ 34.985478427122821, -0.182312178728555 ], [ 34.985995977033213, -0.186866617939997 ], [ 34.985581937104897, -0.197528146094056 ], [ 34.967778220187441, -0.198666755896916 ], [ 34.956185102194681, -0.199701855717698 ], [ 34.954735962445575, -0.201772055359263 ], [ 34.948939403449195, -0.202289605269654 ], [ 34.940348074936701, -0.203635235036671 ], [ 34.933205886173305, -0.204773844839532 ], [ 34.928547936979783, -0.206326494570706 ], [ 34.927202307212767, -0.207051064445253 ] ] ], [ [ [ 35.125320412910519, -0.144168750332725 ], [ 35.12583796282091, -0.15151795906028 ], [ 35.128839752301182, -0.152035508970671 ], [ 35.134383568606459, -0.156628779712386 ], [ 35.103677258788061, -0.201762584438887 ], [ 35.073997637673351, -0.209411944017882 ], [ 35.06465958988116, -0.217254935507154 ], [ 35.063207798070785, -0.221569711321947 ], [ 35.060574919120555, -0.219368752312563 ], [ 35.058349454505873, -0.218230142509703 ], [ 35.056538029819507, -0.217350307662038 ], [ 35.053432730357159, -0.215901167912942 ], [ 35.05058620585001, -0.214555538145925 ], [ 35.049033556118836, -0.212951133423713 ], [ 35.045669481701289, -0.21196778859397 ], [ 35.043081732149339, -0.210673913817992 ], [ 35.040856267534657, -0.209535304015131 ], [ 35.038423782955817, -0.208448449203309 ], [ 35.03578427841282, -0.206999309454214 ], [ 35.032264939022163, -0.205550169705119 ], [ 35.030298249362673, -0.203635235036671 ], [ 35.028642089649423, -0.201047485484716 ], [ 35.02879735462254, -0.19670006623743 ], [ 35.02786576478384, -0.194526356613787 ], [ 35.025122750258767, -0.193646521766122 ], [ 35.017721786540172, -0.192197382017026 ], [ 35.012235757490018, -0.190644732285853 ], [ 35.004731283789347, -0.187125392895193 ], [ 35.001781249300116, -0.185417478190902 ], [ 34.999193499748159, -0.183036748603102 ], [ 34.998417174882576, -0.181794628818164 ], [ 34.999141744757125, -0.174962970001 ], [ 35.000383864542066, -0.165957601560194 ], [ 35.001056679425574, -0.164663726784216 ], [ 35.001108434416608, -0.163421606999277 ], [ 35.000332109551024, -0.162748792115768 ], [ 34.998572439855693, -0.162904057088886 ], [ 34.996968035133484, -0.164146176873824 ], [ 34.99510485545607, -0.163369852008238 ], [ 34.993810980680095, -0.160264552545891 ], [ 34.992413595922038, -0.158039087931208 ], [ 34.991482006083338, -0.154675013513666 ], [ 34.995001345473995, -0.154053953621196 ], [ 34.999089989766084, -0.152811833836258 ], [ 35.001574229335965, -0.151724979024436 ], [ 35.002454064183624, -0.150586369221576 ], [ 35.003075124076098, -0.151621469042358 ], [ 35.004317243861038, -0.15265656886314 ], [ 35.007422543323379, -0.155658358343409 ], [ 35.012701552409375, -0.1585566378416 ], [ 35.014047182176391, -0.159902267608617 ], [ 35.01642791176419, -0.160212797554852 ], [ 35.018912151334064, -0.159074187751991 ], [ 35.02222447076057, -0.157418028038739 ], [ 35.025743810151226, -0.155865378307566 ], [ 35.032057919058012, -0.15265656886314 ], [ 35.034645668609969, -0.151207429114045 ], [ 35.037233418161925, -0.150068819311184 ], [ 35.038475537946866, -0.148619679562089 ], [ 35.038889577875175, -0.146756499884681 ], [ 35.040338717624273, -0.14561789008182 ], [ 35.04095977751674, -0.146445969938446 ], [ 35.042408917265838, -0.146860009866759 ], [ 35.044479116907404, -0.147791599705463 ], [ 35.04582474667442, -0.147895109687541 ], [ 35.048412496226376, -0.149551269400793 ], [ 35.051724815652882, -0.150586369221576 ], [ 35.053484485348207, -0.151000409149888 ], [ 35.055658194971855, -0.152242528934827 ], [ 35.057107334720946, -0.151207429114045 ], [ 35.061144224021987, -0.150586369221576 ], [ 35.062593363771079, -0.149447759418715 ], [ 35.064974093358884, -0.149447759418715 ], [ 35.068700452713699, -0.152760078845218 ], [ 35.069839062516557, -0.155554848361331 ], [ 35.070977672319415, -0.157003988110426 ], [ 35.07501456162047, -0.157107498092504 ], [ 35.077602311172427, -0.158660147823678 ], [ 35.087953309380246, -0.1585566378416 ], [ 35.09219721864546, -0.157728557984974 ], [ 35.095406028089883, -0.157625048002896 ], [ 35.100063977283405, -0.156486438200035 ], [ 35.102548216853279, -0.152760078845218 ], [ 35.105446496351469, -0.152139018952749 ], [ 35.107620205975117, -0.151207429114045 ], [ 35.110000935562915, -0.14975828936495 ], [ 35.114348354810197, -0.147688089723385 ], [ 35.119937893842426, -0.145928420028055 ], [ 35.125320412910519, -0.144168750332725 ] ] ] ] } },
{ "type": "Feature", "properties": { "id": "289", "wardcode": "1206", "ward": "East Kano/Wawidhi", "wardalias": null, "countycode": 42.0, "county": "Kisumu", "const": "Nyando", "constcode": 242.0, "disamb": null, "Notes": null, "Rownum": "290", "wardcounty": "East Kano/Wawidhi_Kisumu" }, "geometry": { "type": "MultiPolygon", "coordinates": [ [ [ [ 35.063207798070785, -0.221569711321947 ], [ 35.060509977975812, -0.229921845690253 ], [ 35.057316522729423, -0.254694880788586 ], [ 35.055907816456262, -0.267614740575139 ], [ 35.052366555197921, -0.281952761351707 ], [ 35.050379185885866, -0.28178527150574 ], [ 35.042719447212072, -0.281681761523662 ], [ 35.04002818767804, -0.280750171684957 ], [ 35.036612358269458, -0.28178527150574 ], [ 35.035370238484518, -0.282716861344444 ], [ 35.031850899093861, -0.283027391290679 ], [ 35.030298249362687, -0.283958981129383 ], [ 35.02843506968528, -0.284062491111461 ], [ 35.025122750258774, -0.280957191649114 ], [ 35.022431490724742, -0.280646661702879 ], [ 35.014771752050947, -0.28002560181041 ], [ 35.014254202140556, -0.276402752437671 ], [ 35.008147113197943, -0.276609772401828 ], [ 35.007008503395085, -0.273090433011168 ], [ 35.00514532371767, -0.27236586313662 ], [ 35.002557574165721, -0.270192153512977 ], [ 35.000383864542073, -0.268535993799725 ], [ 34.999866314631682, -0.264602614480753 ], [ 34.99810664493635, -0.26418857455244 ], [ 34.996657505187258, -0.262842944785423 ], [ 34.995001345474009, -0.261186785072171 ], [ 34.994380285581535, -0.259737645323075 ], [ 34.995829425330633, -0.25828850557398 ], [ 34.994794325509851, -0.257253405753198 ], [ 34.993345185760752, -0.256942875806963 ], [ 34.989929356352171, -0.256011285968259 ], [ 34.98941180644178, -0.254458636237085 ], [ 34.987341606800214, -0.252284926613442 ], [ 34.985581937104882, -0.25187088668513 ], [ 34.983718757427475, -0.250525256918112 ], [ 34.981855577750068, -0.248869097204861 ], [ 34.978543258323562, -0.246074327688748 ], [ 34.976887098610312, -0.24245147831601 ], [ 34.975541468843296, -0.239035648907428 ], [ 34.974402859040431, -0.238414589014959 ], [ 34.97005543979315, -0.238828628943272 ], [ 34.967260670277035, -0.240070748728211 ], [ 34.965397490599628, -0.238828628943272 ], [ 34.963430800940138, -0.237482999176255 ], [ 34.961671131244813, -0.237482999176255 ], [ 34.96032550147779, -0.235826839463003 ], [ 34.957737751925841, -0.232825049982734 ], [ 34.955564042302193, -0.232100480108186 ], [ 34.953286822696477, -0.229616240538309 ], [ 34.949974503269971, -0.227753060860901 ], [ 34.947386753718014, -0.227960080825057 ], [ 34.945627084022682, -0.228684650699605 ], [ 34.943867414327357, -0.229719750520387 ], [ 34.942521784560334, -0.229719750520387 ], [ 34.940451584918769, -0.227546040896744 ], [ 34.939416485097993, -0.225682861219336 ], [ 34.936000655689405, -0.225372331273101 ], [ 34.932791846244982, -0.226096901147649 ], [ 34.930411116657183, -0.228063590807135 ], [ 34.929065486890167, -0.228477630735448 ], [ 34.928340917015618, -0.230237300430778 ], [ 34.927305817194835, -0.230444320394935 ], [ 34.923993497768336, -0.231582930197795 ], [ 34.920267138413521, -0.233239089911047 ], [ 34.916644289040782, -0.233446109875203 ], [ 34.913435479596359, -0.234895249624299 ], [ 34.911675809901027, -0.236137369409238 ], [ 34.909605610259462, -0.238621608979115 ], [ 34.909398590295304, -0.227649550878822 ], [ 34.910226670151928, -0.224337231452319 ], [ 34.911882829865185, -0.221956501864519 ], [ 34.914367069435059, -0.220093322187111 ], [ 34.915712699202075, -0.21957577227672 ], [ 34.917472368897407, -0.21895471238425 ], [ 34.919956608467288, -0.220196832169189 ], [ 34.921198728252222, -0.21895471238425 ], [ 34.923682967822103, -0.21895471238425 ], [ 34.925132107571194, -0.217712592599312 ], [ 34.924407537696652, -0.216988022724764 ], [ 34.923061907929636, -0.214814313101121 ], [ 34.920888198305988, -0.212330073531243 ], [ 34.919853098485206, -0.208914244122661 ], [ 34.920888198305988, -0.20725808440941 ], [ 34.927202307212767, -0.207051064445253 ], [ 34.928547936979783, -0.206326494570706 ], [ 34.933205886173305, -0.204773844839532 ], [ 34.940348074936701, -0.203635235036671 ], [ 34.948939403449195, -0.202289605269654 ], [ 34.954735962445575, -0.201772055359263 ], [ 34.956185102194681, -0.199701855717698 ], [ 34.967778220187441, -0.198666755896916 ], [ 34.985581937104897, -0.197528146094056 ], [ 34.985995977033213, -0.186866617939997 ], [ 34.985478427122821, -0.182312178728555 ], [ 34.984339817319956, -0.17848230939166 ], [ 34.983408227481256, -0.171236610646184 ], [ 34.979371338180201, -0.167199721345132 ], [ 34.978543258323576, -0.163473361990316 ], [ 34.97812921839526, -0.159332962707186 ], [ 34.98102749789345, -0.15912594274303 ], [ 34.985167897176581, -0.156641703173152 ], [ 34.991482006083338, -0.154675013513666 ], [ 34.992413595922038, -0.158039087931208 ], [ 34.993810980680095, -0.160264552545891 ], [ 34.99510485545607, -0.163369852008238 ], [ 34.996968035133484, -0.164146176873824 ], [ 34.998572439855693, -0.162904057088886 ], [ 35.000332109551024, -0.162748792115768 ], [ 35.001108434416608, -0.163421606999277 ], [ 35.001056679425574, -0.164663726784216 ], [ 35.000383864542066, -0.165957601560194 ], [ 34.999141744757125, -0.174962970001 ], [ 34.998417174882576, -0.181794628818164 ], [ 34.999193499748159, -0.183036748603102 ], [ 35.001781249300116, -0.185417478190902 ], [ 35.004731283789347, -0.187125392895193 ], [ 35.012235757490018, -0.190644732285853 ], [ 35.017721786540172, -0.192197382017026 ], [ 35.025122750258767, -0.193646521766122 ], [ 35.02786576478384, -0.194526356613787 ], [ 35.02879735462254, -0.19670006623743 ], [ 35.028642089649423, -0.201047485484716 ], [ 35.030298249362673, -0.203635235036671 ], [ 35.032264939022163, -0.205550169705119 ], [ 35.03578427841282, -0.206999309454214 ], [ 35.038423782955817, -0.208448449203309 ], [ 35.040856267534657, -0.209535304015131 ], [ 35.043081732149339, -0.210673913817992 ], [ 35.045669481701289, -0.21196778859397 ], [ 35.049033556118836, -0.212951133423713 ], [ 35.05058620585001, -0.214555538145925 ], [ 35.053432730357159, -0.215901167912942 ], [ 35.056538029819507, -0.217350307662038 ], [ 35.058349454505873, -0.218230142509703 ], [ 35.060574919120555, -0.219368752312563 ], [ 35.063207798070785, -0.221569711321947 ] ] ] ] } },
{ "type": "Feature", "properties": { "id": "416", "wardcode": "1209", "ward": "Kabonyo/Kanyagwal", "wardalias": null, "countycode": 42.0, "county": "Kisumu", "const": "Nyando", "constcode": 242.0, "disamb": null, "Notes": null, "Rownum": "417", "wardcounty": "Kabonyo/Kanyagwal_Kisumu" }, "geometry": { "type": "MultiPolygon", "coordinates": [ [ [ [ 34.850915450421098, -0.297518788781632 ], [ 34.851640020295697, -0.295474466635586 ], [ 34.852364590170239, -0.292265657191161 ], [ 34.852675120116473, -0.289263867710892 ], [ 34.852882140080631, -0.285537508356076 ], [ 34.852261080188164, -0.284191878589058 ], [ 34.851225980367381, -0.282121678947494 ], [ 34.849466310672049, -0.279119889467225 ], [ 34.848017170922958, -0.276635649897347 ], [ 34.846878561120093, -0.271253130829279 ], [ 34.845946971281386, -0.269493461133949 ], [ 34.843255711747354, -0.268561871295245 ], [ 34.839839882338772, -0.268354851331088 ], [ 34.838287232607598, -0.27001101104434 ], [ 34.8368380928585, -0.272495250614218 ], [ 34.834767893216934, -0.271977700703827 ], [ 34.832076633682902, -0.271356640811357 ], [ 34.830938023880044, -0.269493461133949 ], [ 34.82648709465068, -0.270218031008497 ], [ 34.823174775224174, -0.269803991080184 ], [ 34.821311595546767, -0.266388161671602 ], [ 34.819344905887277, -0.264110942065881 ], [ 34.818723845994811, -0.259660012836517 ], [ 34.818620336012735, -0.255416103571309 ], [ 34.817895766138186, -0.252103784144805 ], [ 34.816136096442854, -0.246617755094659 ], [ 34.8087868877153, -0.227054368481872 ], [ 34.802679798772694, -0.211424361188058 ], [ 34.801334169005671, -0.208008531779477 ], [ 34.800920129077362, -0.20604184211999 ], [ 34.798746419453721, -0.203764622514269 ], [ 34.798642909471639, -0.200452303087765 ], [ 34.796055159919682, -0.198175083482044 ], [ 34.795123570080982, -0.19610488384048 ], [ 34.79139721072616, -0.195173294001775 ], [ 34.788395421245895, -0.193620644270602 ], [ 34.785083101819389, -0.19196448455735 ], [ 34.782081312339123, -0.189583754969551 ], [ 34.783426942106139, -0.187720575292142 ], [ 34.784255021962764, -0.185029315758108 ], [ 34.785393631765629, -0.182027526277839 ], [ 34.786221711622254, -0.180785406492901 ], [ 34.787463831407187, -0.178611696869258 ], [ 34.788602441210053, -0.177369577084319 ], [ 34.789741051012911, -0.175713417371067 ], [ 34.7917077406724, -0.174264277621972 ], [ 34.796365689865915, -0.174057257657815 ], [ 34.797297279704615, -0.172711627890798 ], [ 34.799574499310339, -0.171262488141703 ], [ 34.801230659023588, -0.17022738832092 ], [ 34.802886818736845, -0.17084844821339 ], [ 34.803197348683078, -0.172090567998329 ], [ 34.804439468468019, -0.173850237693659 ], [ 34.80588860821711, -0.174264277621972 ], [ 34.808165827822833, -0.17436778760405 ], [ 34.8087868877153, -0.176541497227693 ], [ 34.810029007500241, -0.17788712699471 ], [ 34.812513247070115, -0.178197656940945 ], [ 34.815100996622071, -0.179543286707962 ], [ 34.818827355976893, -0.179232756761727 ], [ 34.825555504811973, -0.179232756761727 ], [ 34.827004644561072, -0.178094146958866 ], [ 34.838183722625523, -0.178715206851336 ], [ 34.839529352392539, -0.179336266743805 ], [ 34.84170306201618, -0.180164346600431 ], [ 34.843048691783196, -0.181302956403292 ], [ 34.843980281621903, -0.182027526277839 ], [ 34.846982071102168, -0.182027526277839 ], [ 34.849673330636207, -0.181820506313683 ], [ 34.852571610134397, -0.182752096152387 ], [ 34.853813729919331, -0.184201235901482 ], [ 34.854434789811805, -0.186167925560969 ], [ 34.855469889632587, -0.187203025381751 ], [ 34.857126049345837, -0.188548655148768 ], [ 34.862198038467675, -0.188652165130847 ], [ 34.863647178216766, -0.189894284915785 ], [ 34.863543668234691, -0.195690843912167 ], [ 34.864578768055473, -0.197450513607497 ], [ 34.865820887840407, -0.201280382944391 ], [ 34.866959497643272, -0.2031435626218 ], [ 34.868822677320679, -0.203454092568034 ], [ 34.870582347016011, -0.205213762263364 ], [ 34.872859566621727, -0.205731312173756 ], [ 34.878863145582265, -0.205627802191677 ], [ 34.884038644686179, -0.206455882048303 ], [ 34.888903613843858, -0.20780151181532 ], [ 34.893095768118002, -0.208034409274996 ], [ 34.891439608404745, -0.211657258647735 ], [ 34.890197488619812, -0.215694147948786 ], [ 34.889576428727352, -0.220869647052698 ], [ 34.887713249049945, -0.222939846694262 ], [ 34.88854132890657, -0.225113556317905 ], [ 34.888644838888645, -0.226252166120766 ], [ 34.887713249049945, -0.227390775923626 ], [ 34.886367619282929, -0.228632895708565 ], [ 34.885125499497988, -0.231531175206756 ], [ 34.882537749946025, -0.236189124400277 ], [ 34.881088610196933, -0.239087403898467 ], [ 34.880778080250693, -0.240640053629641 ], [ 34.879950000394068, -0.243227803181597 ], [ 34.877672780788352, -0.24302078321744 ], [ 34.87591311109302, -0.244469922966535 ], [ 34.873118341576919, -0.246747142572257 ], [ 34.871669201827821, -0.249541912088369 ], [ 34.872186751738212, -0.251715621712012 ], [ 34.873325361541077, -0.253371781425264 ], [ 34.875188541218485, -0.253889331335655 ], [ 34.875809601110952, -0.260928010116975 ], [ 34.876637680967576, -0.261652579991523 ], [ 34.877051720895892, -0.265585959310496 ], [ 34.875913111093027, -0.267449138987904 ], [ 34.876844700931734, -0.269001788719077 ], [ 34.875706091128876, -0.270761458414407 ], [ 34.874256951379778, -0.271382518306877 ], [ 34.87404993141562, -0.273763247894676 ], [ 34.875395561182636, -0.276143977482476 ], [ 34.876999965904808, -0.275781692545202 ], [ 34.875964866084018, -0.283751961165226 ], [ 34.873480626514144, -0.285201100914322 ], [ 34.872134996747128, -0.28644322069926 ], [ 34.871617446836737, -0.287995870430434 ], [ 34.870789366980112, -0.289030970251216 ], [ 34.869340227231014, -0.290480110000312 ], [ 34.867891087481922, -0.292550309641876 ], [ 34.864371748091258, -0.294206469355128 ], [ 34.85743657929202, -0.295448589140067 ], [ 34.853503199973055, -0.296690708925006 ], [ 34.850915450421098, -0.297518788781632 ] ] ] ] } },
{ "type": "Feature", "properties": { "id": "549", "wardcode": "1208", "ward": "Ahero", "wardalias": null, "countycode": 42.0, "county": "Kisumu", "const": "Nyando", "constcode": 242.0, "disamb": null, "Notes": null, "Rownum": "550", "wardcounty": "Ahero_Kisumu" }, "geometry": { "type": "MultiPolygon", "coordinates": [ [ [ [ 35.002454064183624, -0.150586369221576 ], [ 35.001574229335965, -0.151724979024436 ], [ 34.999089989766084, -0.152811833836258 ], [ 34.995001345473995, -0.154053953621196 ], [ 34.991482006083338, -0.154675013513666 ], [ 34.985167897176581, -0.156641703173152 ], [ 34.98102749789345, -0.15912594274303 ], [ 34.97812921839526, -0.159332962707186 ], [ 34.975696733816434, -0.159229452725108 ], [ 34.971608089524345, -0.160782102456281 ], [ 34.968036995142647, -0.162127732223299 ], [ 34.965138715644457, -0.163111077053042 ], [ 34.960687786415093, -0.166319886497467 ], [ 34.958979871710802, -0.167717271255523 ], [ 34.953338577687532, -0.167639638768965 ], [ 34.951475398010125, -0.168364208643512 ], [ 34.951423643019083, -0.174678317550285 ], [ 34.949715728314793, -0.175765172362106 ], [ 34.947749038655303, -0.177421332075358 ], [ 34.945523574040621, -0.178922226815492 ], [ 34.942987579479706, -0.180267856582509 ], [ 34.940813869856065, -0.181509976367448 ], [ 34.937812080375792, -0.183476666026935 ], [ 34.936362940626701, -0.184563520838756 ], [ 34.933154131182278, -0.186064415578891 ], [ 34.929738301773696, -0.188031105238377 ], [ 34.925908432436799, -0.189376735005394 ], [ 34.92425227272355, -0.190463589817216 ], [ 34.925960187427833, -0.195225048992815 ], [ 34.928030387069398, -0.197916308526849 ], [ 34.928961976908106, -0.199261938293866 ], [ 34.927926877087323, -0.200918098007118 ], [ 34.927875122096289, -0.202936542657643 ], [ 34.927254062203815, -0.204592702370895 ], [ 34.927202307212767, -0.207051064445253 ], [ 34.920888198305988, -0.20725808440941 ], [ 34.919853098485206, -0.208914244122661 ], [ 34.920888198305988, -0.212330073531243 ], [ 34.923061907929636, -0.214814313101121 ], [ 34.924407537696652, -0.216988022724764 ], [ 34.925132107571194, -0.217712592599312 ], [ 34.923682967822103, -0.21895471238425 ], [ 34.921198728252222, -0.21895471238425 ], [ 34.919956608467288, -0.220196832169189 ], [ 34.917472368897407, -0.21895471238425 ], [ 34.915712699202075, -0.21957577227672 ], [ 34.914367069435059, -0.220093322187111 ], [ 34.911882829865185, -0.221956501864519 ], [ 34.910226670151928, -0.224337231452319 ], [ 34.909398590295304, -0.227649550878822 ], [ 34.909605610259462, -0.238621608979115 ], [ 34.906241535841914, -0.245712042751475 ], [ 34.904999416056974, -0.247989262357196 ], [ 34.903550276307875, -0.250887541855386 ], [ 34.901273056702159, -0.253992841317733 ], [ 34.898064247257729, -0.256270060923455 ], [ 34.893095768117973, -0.260306950224506 ], [ 34.888955368834843, -0.263619269651009 ], [ 34.884504439605479, -0.267242119023748 ], [ 34.883055299856387, -0.268691258772843 ], [ 34.881140365187939, -0.274539572760263 ], [ 34.876999965904808, -0.275781692545202 ], [ 34.875395561182636, -0.276143977482476 ], [ 34.87404993141562, -0.273763247894676 ], [ 34.874256951379778, -0.271382518306877 ], [ 34.875706091128876, -0.270761458414407 ], [ 34.876844700931734, -0.269001788719077 ], [ 34.875913111093027, -0.267449138987904 ], [ 34.877051720895892, -0.265585959310496 ], [ 34.876637680967576, -0.261652579991523 ], [ 34.875809601110952, -0.260928010116975 ], [ 34.875188541218485, -0.253889331335655 ], [ 34.873325361541077, -0.253371781425264 ], [ 34.872186751738212, -0.251715621712012 ], [ 34.871669201827821, -0.249541912088369 ], [ 34.873118341576919, -0.246747142572257 ], [ 34.87591311109302, -0.244469922966535 ], [ 34.877672780788352, -0.24302078321744 ], [ 34.879950000394068, -0.243227803181597 ], [ 34.880778080250693, -0.240640053629641 ], [ 34.881088610196933, -0.239087403898467 ], [ 34.882537749946025, -0.236189124400277 ], [ 34.885125499497988, -0.231531175206756 ], [ 34.886367619282929, -0.228632895708565 ], [ 34.887713249049945, -0.227390775923626 ], [ 34.888644838888645, -0.226252166120766 ], [ 34.88854132890657, -0.225113556317905 ], [ 34.887713249049945, -0.222939846694262 ], [ 34.889576428727352, -0.220869647052698 ], [ 34.890197488619812, -0.215694147948786 ], [ 34.891439608404745, -0.211657258647735 ], [ 34.893095768118002, -0.208034409274996 ], [ 34.894337887902942, -0.206585269525901 ], [ 34.895580007687876, -0.203790500009789 ], [ 34.896718617490741, -0.201616790386146 ], [ 34.898271267221915, -0.198615000905877 ], [ 34.899616896988931, -0.19664831124639 ], [ 34.900444976845556, -0.194785131568982 ], [ 34.904274846182453, -0.189299102518836 ], [ 34.904792396092837, -0.186400823020645 ], [ 34.90417133620037, -0.183295523558298 ], [ 34.906034515877778, -0.17905161429309 ], [ 34.907690675591034, -0.176360354759056 ], [ 34.908518755447659, -0.170460285780597 ], [ 34.913383724605339, -0.17025326581644 ], [ 34.915143394300671, -0.169011146031501 ], [ 34.916074984139371, -0.167769026246562 ], [ 34.917213593942236, -0.166837436407858 ], [ 34.919387303565877, -0.166319886497467 ], [ 34.920629423350817, -0.166423396479545 ], [ 34.921353993225367, -0.16383564692759 ], [ 34.923217172902774, -0.160212797554851 ], [ 34.924666312651865, -0.15969524764446 ], [ 34.925287372544339, -0.158039087931208 ], [ 34.92746108216798, -0.155968888289644 ], [ 34.929220751863312, -0.154209218594313 ], [ 34.930980421558637, -0.152346038916905 ], [ 34.933361151146443, -0.151414449078201 ], [ 34.933982211038909, -0.149654779382871 ], [ 34.937087510501257, -0.149033719490402 ], [ 34.93905420016074, -0.149965309329106 ], [ 34.939778770035289, -0.147067029830915 ], [ 34.941227909784388, -0.145307360135585 ], [ 34.943091089461788, -0.145203850153507 ], [ 34.944022679300488, -0.143754710404412 ], [ 34.944747249175037, -0.142823120565708 ], [ 34.946403408888294, -0.142409080637395 ], [ 34.947231488744919, -0.141684510762847 ], [ 34.94868062849401, -0.142719610583629 ], [ 34.954787717436631, -0.142926630547786 ], [ 34.956340367167805, -0.143754710404412 ], [ 34.95841056680937, -0.14385822038649 ], [ 34.959756196576386, -0.142926630547786 ], [ 34.961101826343402, -0.144065240350646 ], [ 34.961929906200027, -0.145100340171429 ], [ 34.962550966092493, -0.146652989902602 ], [ 34.964000105841592, -0.14675649988468 ], [ 34.965863285518999, -0.145721400063898 ], [ 34.967001895321857, -0.144582790261038 ], [ 34.97000368480213, -0.143961730368568 ], [ 34.973937064121088, -0.142460835628434 ], [ 34.978853788269788, -0.143754710404412 ], [ 34.982580147624603, -0.145203850153507 ], [ 34.994690815527761, -0.14623894997429 ], [ 34.997899624972185, -0.147791599705463 ], [ 35.001729494309082, -0.148102129651698 ], [ 35.002454064183624, -0.150586369221576 ] ] ] ] } }
]
}
